{"type": "FeatureCollection", "features": [ {"type": "Feature", "properties": {"norad_id": 43437, "name": "SENTINEL-3B", "group": "resource", "lat": -47.52199492823307, "lon": 69.31313988788433, "alt_km": 810.3440870823961, "timestamp": "2025-12-20T16:47:35.949093+00:00", "meta": {"OBJECT_NAME": "SENTINEL-3B", "OBJECT_ID": "2018-039A", "EPOCH": "2025-12-20T01:52:15.630816", "MEAN_MOTION": 14.26736631, "ECCENTRICITY": 0.00016258, "INCLINATION": 98.6258, "RA_OF_ASC_NODE": 59.1578, "ARG_OF_PERICENTER": 94.4485, "MEAN_ANOMALY": 265.6881, "EPHEMERIS_TYPE": 0, "CLASSIFICATION_TYPE": "U", "NORAD_CAT_ID": 43437, "ELEMENT_SET_NO": 999, "REV_AT_EPOCH": 39858, "BSTAR": 5.9718568e-05, "MEAN_MOTION_DOT": 1.01e-06, "MEAN_MOTION_DDOT": 0}, "tle": {"line1": "1 43437U 18039A   25354.07795869  .00000101  00000+0  59719-4 0  9998", "line2": "2 43437  98.6258  59.1578 0001625  94.4485 265.6881 14.26736631398582"}}, "geometry": {"type": "Point", "coordinates": [69.31313988788433, -47.52199492823307]}}, {"type": "Feature", "properties": {"norad_id": 43461, "name": "GAOFEN-5 01", "group": "resource", "lat": -4.6745776139930815, "lon": 137.11117922563716, "alt_km": 695.4988804855448, "timestamp": "2025-12-20T16:47:35.949104+00:00", "meta": {"OBJECT_NAME": "GAOFEN-5 01", "OBJECT_ID": "2018-043A", "EPOCH": "2025-12-20T09:22:23.774880", "MEAN_MOTION": 14.60417485, "ECCENTRICITY": 5.35e-05, "INCLINATION": 98.4336, "RA_OF_ASC_NODE": 317.4917, "ARG_OF_PERICENTER": 291.8089, "MEAN_ANOMALY": 68.3053, "EPHEMERIS_TYPE": 0, "CLASSIFICATION_TYPE": "U", "NORAD_CAT_ID": 43461, "ELEMENT_SET_NO": 999, "REV_AT_EPOCH": 40559, "BSTAR": 7.717e-05, "MEAN_MOTION_DOT": 3.25e-06, "MEAN_MOTION_DDOT": 0}, "tle": {"line1": "1 43461U 18043A   25354.39055295  .00000325  00000+0  77170-4 0  9996", "line2": "2 43461  98.4336 317.4917 0000535 291.8089  68.3053 14.60417485405593"}}, "geometry": {"type": "Point", "coordinates": [137.11117922563716, -4.6745776139930815]}}, {"type": "Feature", "properties": {"norad_id": 43484, "name": "GAOFEN-6", "group": "resource", "lat": -75.78858391811302, "lon": 91.48316414506053, "alt_km": 651.7157627747101, "timestamp": "2025-12-20T16:47:35.949114+00:00", "meta": {"OBJECT_NAME": "GAOFEN-6", "OBJECT_ID": "2018-048A", "EPOCH": "2025-12-20T12:16:02.153856", "MEAN_MOTION": 14.76580086, "ECCENTRICITY": 0.0012866, "INCLINATION": 97.8029, "RA_OF_ASC_NODE": 58.5175, "ARG_OF_PERICENTER": 40.6494, "MEAN_ANOMALY": 319.5674, "EPHEMERIS_TYPE": 0, "CLASSIFICATION_TYPE": "U", "NORAD_CAT_ID": 43484, "ELEMENT_SET_NO": 999, "REV_AT_EPOCH": 40702, "BSTAR": 0.00011566, "MEAN_MOTION_DOT": 7.59e-06, "MEAN_MOTION_DDOT": 0}, "tle": {"line1": "1 43484U 18048A   25354.51113604  .00000759  00000+0  11566-3 0  9996", "line2": "2 43484  97.8029  58.5175 0012866  40.6494 319.5674 14.76580086407024"}}, "geometry": {"type": "Point", "coordinates": [91.48316414506053, -75.78858391811302]}}, {"type": "Feature", "properties": {"norad_id": 43585, "name": "GAOFEN-11 01", "group": "resource", "lat": 9.956193747873705, "lon": 56.305452158541954, "alt_km": 420.4654768040673, "timestamp": "2025-12-20T16:47:35.949124+00:00", "meta": {"OBJECT_NAME": "GAOFEN-11 01", "OBJECT_ID": "2018-063A", "EPOCH": "2025-12-20T12:06:00.746784", "MEAN_MOTION": 15.49431853, "ECCENTRICITY": 0.0003946, "INCLINATION": 97.156, "RA_OF_ASC_NODE": 57.3752, "ARG_OF_PERICENTER": 273.402, "MEAN_ANOMALY": 86.678, "EPHEMERIS_TYPE": 0, "CLASSIFICATION_TYPE": "U", "NORAD_CAT_ID": 43585, "ELEMENT_SET_NO": 999, "REV_AT_EPOCH": 41262, "BSTAR": 0.0002666, "MEAN_MOTION_DOT": 0.00014565, "MEAN_MOTION_DDOT": 0}, "tle": {"line1": "1 43585U 18063A   25354.50417531  .00014565  00000+0  26660-3 0  9991", "line2": "2 43585  97.1560  57.3752 0003946 273.4020  86.6780 15.49431853412627"}}, "geometry": {"type": "Point", "coordinates": [56.305452158541954, 9.956193747873705]}}, {"type": "Feature", "properties": {"norad_id": 43613, "name": "ICESAT-2", "group": "resource", "lat": -41.821305127427976, "lon": 61.089237055278666, "alt_km": 488.262426647364, "timestamp": "2025-12-20T16:47:35.949134+00:00", "meta": {"OBJECT_NAME": "ICESAT-2", "OBJECT_ID": "2018-070A", "EPOCH": "2025-12-20T11:06:41.328576", "MEAN_MOTION": 15.28231197, "ECCENTRICITY": 0.0002851, "INCLINATION": 92.0048, "RA_OF_ASC_NODE": 242.8215, "ARG_OF_PERICENTER": 120.5631, "MEAN_ANOMALY": 239.5899, "EPHEMERIS_TYPE": 0, "CLASSIFICATION_TYPE": "U", "NORAD_CAT_ID": 43613, "ELEMENT_SET_NO": 999, "REV_AT_EPOCH": 40516, "BSTAR": 0.00031966, "MEAN_MOTION_DOT": 8.791e-05, "MEAN_MOTION_DDOT": 0}, "tle": {"line1": "1 43613U 18070A   25354.46297834  .00008791  00000+0  31966-3 0  9997", "line2": "2 43613  92.0048 242.8215 0002851 120.5631 239.5899 15.28231197405160"}}, "geometry": {"type": "Point", "coordinates": [61.089237055278666, -41.821305127427976]}}, {"type": "Feature", "properties": {"norad_id": 43719, "name": "HYSIS", "group": "resource", "lat": 16.841759311916796, "lon": 55.1963061399837, "alt_km": 633.5085101561799, "timestamp": "2025-12-20T16:47:35.949144+00:00", "meta": {"OBJECT_NAME": "HYSIS", "OBJECT_ID": "2018-096A", "EPOCH": "2025-12-20T11:50:39.904224", "MEAN_MOTION": 14.78667346, "ECCENTRICITY": 0.0001061, "INCLINATION": 98.0095, "RA_OF_ASC_NODE": 57.434, "ARG_OF_PERICENTER": 52.8779, "MEAN_ANOMALY": 307.2529, "EPHEMERIS_TYPE": 0, "CLASSIFICATION_TYPE": "U", "NORAD_CAT_ID": 43719, "ELEMENT_SET_NO": 999, "REV_AT_EPOCH": 38101, "BSTAR": 0.00021549, "MEAN_MOTION_DOT": 1.527e-05, "MEAN_MOTION_DDOT": 0}, "tle": {"line1": "1 43719U 18096A   25354.49351741  .00001527  00000+0  21549-3 0  9999", "line2": "2 43719  98.0095  57.4340 0001061  52.8779 307.2529 14.78667346381019"}}, "geometry": {"type": "Point", "coordinates": [55.1963061399837, 16.841759311916796]}}, {"type": "Feature", "properties": {"norad_id": 43783, "name": "KAZSTSAT", "group": "resource", "lat": 53.88596232145765, "lon": -140.1215144920661, "alt_km": 567.9033294437231, "timestamp": "2025-12-20T16:47:35.949154+00:00", "meta": {"OBJECT_NAME": "KAZSTSAT", "OBJECT_ID": "2018-099AB", "EPOCH": "2025-12-20T08:13:38.358048", "MEAN_MOTION": 14.99364446, "ECCENTRICITY": 0.0005992, "INCLINATION": 97.453, "RA_OF_ASC_NODE": 29.2006, "ARG_OF_PERICENTER": 296.0464, "MEAN_ANOMALY": 64.0142, "EPHEMERIS_TYPE": 0, "CLASSIFICATION_TYPE": "U", "NORAD_CAT_ID": 43783, "ELEMENT_SET_NO": 999, "REV_AT_EPOCH": 38450, "BSTAR": 2.1221e-05, "MEAN_MOTION_DOT": 2.04e-06, "MEAN_MOTION_DDOT": 0}, "tle": {"line1": "1 43783U 18099AB  25354.34280507  .00000204  00000+0  21221-4 0  9997", "line2": "2 43783  97.4530  29.2006 0005992 296.0464  64.0142 14.99364446384507"}}, "geometry": {"type": "Point", "coordinates": [-140.1215144920661, 53.88596232145765]}}, {"type": "Feature", "properties": {"norad_id": 43831, "name": "SAUDISAT 5A", "group": "resource", "lat": -31.720812764277117, "lon": -129.82905682919426, "alt_km": 502.06384677147344, "timestamp": "2025-12-20T16:47:35.949163+00:00", "meta": {"OBJECT_NAME": "SAUDISAT 5A", "OBJECT_ID": "2018-102A", "EPOCH": "2025-12-20T12:43:11.943840", "MEAN_MOTION": 15.25745294, "ECCENTRICITY": 0.0011407, "INCLINATION": 97.3345, "RA_OF_ASC_NODE": 54.571, "ARG_OF_PERICENTER": 52.3065, "MEAN_ANOMALY": 307.9206, "EPHEMERIS_TYPE": 0, "CLASSIFICATION_TYPE": "U", "NORAD_CAT_ID": 43831, "ELEMENT_SET_NO": 999, "REV_AT_EPOCH": 38841, "BSTAR": 0.00017276, "MEAN_MOTION_DOT": 4.343e-05, "MEAN_MOTION_DDOT": 0}, "tle": {"line1": "1 43831U 18102A   25354.52999935  .00004343  00000+0  17276-3 0  9990", "line2": "2 43831  97.3345  54.5710 0011407  52.3065 307.9206 15.25745294388413"}}, "geometry": {"type": "Point", "coordinates": [-129.82905682919426, -31.720812764277117]}}, {"type": "Feature", "properties": {"norad_id": 43833, "name": "SAUDISAT 5B", "group": "resource", "lat": -81.62241781976509, "lon": 118.62647807954659, "alt_km": 501.2199657221381, "timestamp": "2025-12-20T16:47:35.949173+00:00", "meta": {"OBJECT_NAME": "SAUDISAT 5B", "OBJECT_ID": "2018-102C", "EPOCH": "2025-12-20T12:26:55.468320", "MEAN_MOTION": 15.26094054, "ECCENTRICITY": 0.0012131, "INCLINATION": 97.3439, "RA_OF_ASC_NODE": 57.3125, "ARG_OF_PERICENTER": 54.4046, "MEAN_ANOMALY": 305.8321, "EPHEMERIS_TYPE": 0, "CLASSIFICATION_TYPE": "U", "NORAD_CAT_ID": 43833, "ELEMENT_SET_NO": 999, "REV_AT_EPOCH": 38852, "BSTAR": 0.00016551, "MEAN_MOTION_DOT": 4.203e-05, "MEAN_MOTION_DDOT": 0}, "tle": {"line1": "1 43833U 18102C   25354.51869755  .00004203  00000+0  16551-3 0  9997", "line2": "2 43833  97.3439  57.3125 0012131  54.4046 305.8321 15.26094054388526"}}, "geometry": {"type": "Point", "coordinates": [118.62647807954659, -81.62241781976509]}}, {"type": "Feature", "properties": {"norad_id": 44622, "name": "GAOFEN-10R", "group": "resource", "lat": 59.287289268856924, "lon": -71.50787720091913, "alt_km": 610.8546752335278, "timestamp": "2025-12-20T16:47:35.949184+00:00", "meta": {"OBJECT_NAME": "GAOFEN-10R", "OBJECT_ID": "2019-066A", "EPOCH": "2025-12-20T13:17:01.905792", "MEAN_MOTION": 14.82816282, "ECCENTRICITY": 0.0007356, "INCLINATION": 98.0289, "RA_OF_ASC_NODE": 302.0905, "ARG_OF_PERICENTER": 19.3213, "MEAN_ANOMALY": 340.8278, "EPHEMERIS_TYPE": 0, "CLASSIFICATION_TYPE": "U", "NORAD_CAT_ID": 44622, "ELEMENT_SET_NO": 999, "REV_AT_EPOCH": 33590, "BSTAR": 0.00014411, "MEAN_MOTION_DOT": 1.112e-05, "MEAN_MOTION_DDOT": 0}, "tle": {"line1": "1 44622U 19066A   25354.55349428  .00001112  00000+0  14411-3 0  9997", "line2": "2 44622  98.0289 302.0905 0007356  19.3213 340.8278 14.82816282335909"}}, "geometry": {"type": "Point", "coordinates": [-71.50787720091913, 59.287289268856924]}}]}